NORAD_CAT_ID,OBJECT_NAME,OBJECT_TYPE,EPOCH,MEAN_MOTION,ECCENTRICITY,INCLINATION,RA_OF_ASC_NODE,ARG_OF_PERICENTER,MEAN_ANOMALY,BSTAR,MEAN_MOTION_DOT,MEAN_MOTION_DDOT,TLE_LINE0,TLE_LINE1,TLE_LINE2,SEMIMAJOR_AXIS,PERIOD,APOGEE,PERIGEE,DECAYED
55941.0,STARLINK-5914,PAYLOAD,2023-04-23 07:08:01,15.69929054,0.0003237,70.0002,78.3703,261.4514,98.6315,9.5886e-06,9.41e-06,0.0,0 STARLINK-5914,1 55941U 23037AD  23113.29724111  .00000941  00000-0  95886-5 0  9991,2 55941  70.0002  78.3703 0003237 261.4514  98.6315 15.69929054  6267,6737.237,91.724,361.283,356.921,0.0
55941.0,STARLINK-5914,PAYLOAD,2023-04-23 20:53:47,15.69928812,0.0003143,70.0005,76.7582,265.7275,94.3562,1.7702e-05,1.917e-05,0.0,0 STARLINK-5914,1 55941U 23037AD  23113.87069289  .00001917  00000-0  17702-4 0  9997,2 55941  70.0005  76.7582 0003143 265.7275  94.3562 15.69928812  6015,6737.238,91.724,361.22,356.985,0.0
55941.0,STARLINK-5914,PAYLOAD,2023-04-23 23:57:17,15.69936387,0.000295,70.0018,76.4014,251.1733,108.9142,2.8181e-05,3.179e-05,0.0,0 STARLINK-5914,1 55941U 23037AD  23113.99812129  .00003179  00000-0  28181-4 0  9994,2 55941  70.0018  76.4014 0002950 251.1733 108.9142 15.69936387  6033,6737.216,91.723,361.068,357.094,0.0
55941.0,STARLINK-5914,PAYLOAD,2023-04-25 03:28:51,15.69858193,0.0002628,70.0009,73.1741,262.6902,97.3995,-0.00014761,-0.00017873,0.0,0 STARLINK-5914,1 55941U 23037AD  23115.14504300 -.00017873  00000-0 -14761-3 0  9998,2 55941  70.0009  73.1741 0002628 262.6902  97.3995 15.69858193  6553,6737.44,91.728,361.075,357.534,0.0
55941.0,STARLINK-5914,PAYLOAD,2023-04-25 06:32:21,15.69865827,0.0002743,70.0011,72.8172,260.538,99.5506,-0.00012729,-0.00015451,0.0,0 STARLINK-5914,1 55941U 23037AD  23115.27247635 -.00015451  00000-0 -12729-3 0  9999,2 55941  70.0011  72.8172 0002743 260.5380  99.5506 15.69865827  6571,6737.418,91.728,361.131,357.435,0.0
55941.0,STARLINK-5914,PAYLOAD,2023-04-26 07:00:23,15.69924931,0.0002417,70.0035,69.9545,248.1692,111.9246,1.8061e-05,1.96e-05,0.0,0 STARLINK-5914,1 55941U 23037AD  23116.29194035  .00001960  00000-0  18061-4 0  9991,2 55941  70.0035  69.9545 0002417 248.1692 111.9246 15.69924931  6396,6737.249,91.724,360.742,357.485,0.0
55941.0,STARLINK-5914,PAYLOAD,2023-04-27 05:56:41,15.69895084,0.0002192,70.0009,67.2662,260.0465,100.0483,5.655e-05,6.584e-05,0.0,0 STARLINK-5914,1 55941U 23037AD  23117.24769891  .00006584  00000-0  56550-4 0  9997,2 55941  70.0009  67.2662 0002192 260.0465 100.0483 15.69895084  6544,6737.334,91.726,360.676,357.722,0.0
55941.0,STARLINK-5914,PAYLOAD,2023-04-27 21:14:10,15.69930418,0.0002446,70.0007,65.4717,260.9674,99.1245,-5.4498e-06,-8.67e-06,0.0,0 STARLINK-5914,1 55941U 23037AD  23117.88484948 -.00000867  00000-0 -54498-5 0  9994,2 55941  70.0007  65.4717 0002446 260.9674  99.1245 15.69930418  6989,6737.233,91.724,360.746,357.45,0.0
55941.0,STARLINK-5914,PAYLOAD,2023-04-28 06:24:43,15.69905901,0.0002188,70.0035,64.3978,262.3406,97.7541,-5.4326e-05,-6.733e-05,0.0,0 STARLINK-5914,1 55941U 23037AD  23118.26716457 -.00006733  00000-0 -54326-4 0  9997,2 55941  70.0035  64.3978 0002188 262.3406  97.7541 15.69905901  7049,6737.303,91.725,360.642,357.694,0.0
55941.0,STARLINK-5914,PAYLOAD,2023-04-28 20:10:27,15.69920461,0.0002893,70.0012,62.7852,267.9796,92.1068,1.5519e-05,1.654e-05,0.0,0 STARLINK-5914,1 55941U 23037AD  23118.84060092  .00001654  00000-0  15519-4 0  9994,2 55941  70.0012  62.7852 0002893 267.9796  92.1068 15.69920461  7134,6737.262,91.724,361.076,357.177,0.0
55941.0,STARLINK-5914,PAYLOAD,2023-04-29 06:52:43,15.69925825,0.0002993,70.0008,61.5307,266.3824,93.7029,2.4363e-05,2.718e-05,0.0,0 STARLINK-5914,1 55941U 23037AD  23119.28661592  .00002718  00000-0  24363-4 0  9994,2 55941  70.0008  61.5307 0002993 266.3824  93.7029 15.69925825  6869,6737.246,91.724,361.128,357.095,0.0
55941.0,STARLINK-5914,PAYLOAD,2023-04-29 23:41:59,15.69927409,0.0003189,70.0009,59.56,267.1817,92.9014,1.7755e-05,1.923e-05,0.0,0 STARLINK-5914,1 55941U 23037AD  23119.98749920  .00001923  00000-0  17755-4 0  9997,2 55941  70.0009  59.5600 0003189 267.1817  92.9014 15.69927409  7318,6737.242,91.724,361.255,356.958,0.0
55941.0,STARLINK-5914,PAYLOAD,2023-04-30 07:20:45,15.69925359,0.0003195,70.0009,58.6647,268.7071,91.3759,1.2539e-05,1.295e-05,0.0,0 STARLINK-5914,1 55941U 23037AD  23120.30608387  .00001295  00000-0  12539-4 0  9993,2 55941  70.0009  58.6647 0003195 268.7071  91.3759 15.69925359  7024,6737.248,91.724,361.265,356.96,0.0
55941.0,STARLINK-5914,PAYLOAD,2023-04-30 21:06:32,15.6992003,0.0003456,70.0002,57.0519,268.6911,91.3889,3.7442e-06,2.37e-06,0.0,0 STARLINK-5914,1 55941U 23037AD  23120.87953719  .00000237  00000-0  37442-5 0  9993,2 55941  70.0002  57.0519 0003456 268.6911  91.3889 15.69920030  7452,6737.263,91.724,361.456,356.799,0.0
55941.0,STARLINK-5914,PAYLOAD,2023-05-01 04:45:17,15.6993312,0.0003146,70.0006,56.1562,266.2068,93.8768,3.7088e-05,4.251e-05,0.0,0 STARLINK-5914,1 55941U 23037AD  23121.19811684  .00004251  00000-0  37088-4 0  9998,2 55941  70.0006  56.1562 0003146 266.2068  93.8768 15.69933120  7500,6737.225,91.724,361.21,356.971,0.0
55941.0,STARLINK-5914,PAYLOAD,2023-05-01 06:17:02,15.69930866,0.000301,70.0017,55.9803,264.903,95.1823,2.7377e-05,3.081e-05,0.0,0 STARLINK-5914,1 55941U 23037AD  23121.26183485  .00003081  00000-0  27377-4 0  9997,2 55941  70.0017  55.9803 0003010 264.9030  95.1823 15.69930866  7175,6737.232,91.724,361.125,357.069,0.0
55941.0,STARLINK-5914,PAYLOAD,2023-05-01 21:34:33,15.69932294,0.0002837,70.0022,54.1883,260.675,99.4125,3.6624e-05,4.195e-05,0.0,0 STARLINK-5914,1 55941U 23037AD  23121.89900097  .00004195  00000-0  36624-4 0  9994,2 55941  70.0022  54.1883 0002837 260.6750  99.4125 15.69932294  7278,6737.228,91.724,361.004,357.181,0.0
55941.0,STARLINK-5914,PAYLOAD,2023-05-01 23:06:18,15.69932459,0.0003089,70.002,54.0076,269.1502,90.934,3.2227e-05,3.665e-05,0.0,0 STARLINK-5914,1 55941U 23037AD  23121.96271724  .00003665  00000-0  32227-4 0  9996,2 55941  70.0020  54.0076 0003089 269.1502  90.9340 15.69932459  7625,6737.227,91.724,361.173,357.011,0.0
55941.0,STARLINK-5914,PAYLOAD,2023-05-02 05:13:19,15.69915349,0.0003048,70.002,53.2902,272.3541,87.7305,-1.0584e-05,-1.484e-05,0.0,0 STARLINK-5914,1 55941U 23037AD  23122.21759034 -.00001484  00000-0 -10584-4 0  9991,2 55941  70.0020  53.2902 0003048 272.3541  87.7305 15.69915349  7666,6737.276,91.725,361.195,357.088,0.0
55941.0,STARLINK-5914,PAYLOAD,2023-05-02 12:52:04,15.6992805,0.0003789,70.0011,52.3941,268.3636,91.7125,2.7704e-05,3.12e-05,0.0,0 STARLINK-5914,1 55941U 23037AD  23122.53616775  .00003120  00000-0  27704-4 0  9999,2 55941  70.0011  52.3941 0003789 268.3636  91.7125 15.69928050  7715,6737.24,91.724,361.658,356.552,0.0
55941.0,STARLINK-5914,PAYLOAD,2023-05-02 20:30:51,15.69911254,0.000326,70.0022,51.4985,266.1629,93.9194,-2.9517e-05,-3.758e-05,0.0,0 STARLINK-5914,1 55941U 23037AD  23122.85475875 -.00003758  00000-0 -29517-4 0  9991,2 55941  70.0022  51.4985 0003260 266.1629  93.9194 15.69911254  7423,6737.288,91.725,361.349,356.957,0.0
55941.0,STARLINK-5914,PAYLOAD,2023-05-03 04:09:36,15.69923093,0.0003383,70.0015,50.6029,265.6864,94.3945,1.3918e-05,1.461e-05,0.0,0 STARLINK-5914,1 55941U 23037AD  23123.17334027  .00001461  00000-0  13918-4 0  9995,2 55941  70.0015  50.6029 0003383 265.6864  94.3945 15.69923093  7812,6737.254,91.724,361.398,356.84,0.0
55941.0,STARLINK-5914,PAYLOAD,2023-05-03 20:58:53,15.69917439,0.0004582,70.0023,48.634,287.7525,72.317,1.0489e-05,1.048e-05,0.0,0 STARLINK-5914,1 55941U 23037AD  23123.87422696  .00001048  00000-0  10489-4 0  9993,2 55941  70.0023  48.6340 0004582 287.7525  72.3170 15.69917439  7582,6737.27,91.725,362.222,356.048,0.0
55941.0,STARLINK-5914,PAYLOAD,2023-05-04 04:37:38,15.69921288,0.0002887,70.0025,47.7377,257.9716,102.1157,1.0448e-05,1.044e-05,0.0,0 STARLINK-5914,1 55941U 23037AD  23124.19280835  .00001044  00000-0  10448-4 0  9997,2 55941  70.0025  47.7377 0002887 257.9716 102.1157 15.69921288  7978,6737.259,91.724,361.069,357.179,0.0
55941.0,STARLINK-5914,PAYLOAD,2023-05-04 21:26:54,15.69931162,0.0003274,70.0017,45.7662,257.171,102.912,4.3204e-05,4.987e-05,0.0,0 STARLINK-5914,1 55941U 23037AD  23124.89368998  .00004987  00000-0  43204-4 0  9996,2 55941  70.0017  45.7662 0003274 257.1710 102.9120 15.69931162  7746,6737.231,91.724,361.302,356.89,0.0
55941.0,STARLINK-5914,PAYLOAD,2023-05-05 05:05:40,15.69918384,0.0003772,70.0013,44.8713,261.2137,98.8632,-2.1282e-05,-2.771e-05,0.0,0 STARLINK-5914,1 55941U 23037AD  23125.21227312 -.00002771  00000-0 -21282-4 0  9990,2 55941  70.0013  44.8713 0003772 261.2137  98.8632 15.69918384  8137,6737.268,91.725,361.674,356.591,0.0
55941.0,STARLINK-5914,PAYLOAD,2023-05-05 20:23:11,15.69929291,0.0003774,70.0016,43.0811,263.7767,96.2999,2.5817e-05,2.893e-05,0.0,0 STARLINK-5914,1 55941U 23037AD  23125.84943764  .00002893  00000-0  25817-4 0  9996,2 55941  70.0016  43.0811 0003774 263.7767  96.2999 15.69929291  7897,6737.236,91.724,361.644,356.559,0.0
55941.0,STARLINK-5914,PAYLOAD,2023-05-05 21:54:56,15.69929261,0.0003789,70.0014,42.9021,263.9037,96.1727,2.4972e-05,2.792e-05,0.0,0 STARLINK-5914,1 55941U 23037AD  23125.91315429  .00002792  00000-0  24972-4 0  9994,2 55941  70.0014  42.9021 0003789 263.9037  96.1727 15.69929261  8249,6737.236,91.724,361.654,356.549,0.0
55941.0,STARLINK-5914,PAYLOAD,2023-05-06 04:01:57,15.69926779,0.0003579,70.0017,42.1856,266.2425,93.8361,1.8658e-05,2.032e-05,0.0,0 STARLINK-5914,1 55941U 23037AD  23126.16802300  .00002032  00000-0  18658-4 0  9992,2 55941  70.0017  42.1856 0003579 266.2425  93.8361 15.69926779  7949,6737.243,91.724,361.52,356.697,0.0
55941.0,STARLINK-5914,PAYLOAD,2023-05-06 20:51:13,15.69931175,0.0003773,70.0018,40.2151,267.2689,92.8075,2.4804e-05,2.772e-05,0.0,0 STARLINK-5914,1 55941U 23037AD  23126.86890466  .00002772  00000-0  24804-4 0  9990,2 55941  70.0018  40.2151 0003773 267.2689  92.8075 15.69931175  8393,6737.231,91.724,361.638,356.554,0.0
